ONEWEB-0340             
1 49206U 21083W   25046.53823305 -.00000022  00000+0 -89618-4 0  9992
2 49206  87.9052  72.2379 0001785  90.0957 270.0379 13.18686920167124
ONEWEB-0341             
1 49207U 21083X   25046.47025874  .00000061  00000+0  12237-3 0  9994
2 49207  87.9053  72.2625 0002238  78.2889 281.8494 13.18685400167137
ONEWEB-0342             
1 49208U 21083Y   25046.46198110  .00000133  00000+0  29490-3 0  9997
2 49208  87.9290  11.2956 0001977  84.6261 275.5098 13.20771749173834
ONEWEB-0343             
1 49209U 21083Z   25046.46550113  .00000074  00000+0  15540-3 0  9998
2 49209  87.9047  72.2562 0002520  85.0187 275.1232 13.18688403167180
ONEWEB-0344             
1 49210U 21083AA  25046.54658498  .00000278  00000+0  72595-3 0  9993
2 49210  87.8887  57.0045 0001942  77.4308 282.7039 13.13471025168317
ONEWEB-0345             
1 49211U 21083AB  25045.95461149  .00000124  00000+0  30360-3 0  9997
2 49211  87.8882  57.0911 0001999  75.9446 284.1905 13.13467965166946
ONEWEB-0346             
1 49212U 21083AC  25046.47501213  .00000053  00000+0  10107-3 0  9991
2 49212  87.9051  72.2708 0001448  90.7825 269.3473 13.18687245167120
ONEWEB-0348             
1 49213U 21083AD  25045.92221145  .00000052  00000+0  96818-4 0  9997
2 49213  87.9295  11.3979 0001636  62.0713 298.0586 13.20774207172490
